KUIPER-00104            
1 65142U 25171L   25362.06004383  .00005219  00000+0  76969-3 0  9992
2 65142  51.9001 114.0491 0003363 304.4936  55.5707 14.76653426 22298
KUIPER-00105            
1 65143U 25171M   25361.61483395  .00006343  00000+0  85882-3 0  9990
2 65143  51.8993 124.3641 0012120 223.7218 136.2785 14.79972470 22116
KUIPER-00106            
1 65144U 25171N   25361.54476284  .00009268  00000+0  82504-3 0  9999
2 65144  51.8940 122.7046 0008912 218.7266 141.3065 14.96640487 22130
KUIPER-00107            
1 65145U 25171P   25362.33335648 -.00012378  00000+0 -14778-2 0  9991
2 65145  51.8991 103.7149 0004168 301.7318 141.6135 14.83154198  5801
KUIPER-00108            
1 65146U 25171Q   25361.58599208  .00005221  00000+0  71148-3 0  9994
2 65146  51.9025 119.4294 0008082 232.9638 127.0586 14.80036224 22189
KUIPER-00109            
1 65147U 25171R   25361.62569296  .00005428  00000+0  73951-3 0  9997
2 65147  51.9016 114.2012 0011657 248.8375 111.1342 14.79962692 22254
KUIPER-00110            
1 65148U 25171S   25362.05118962  .00001281  00000+0  19708-3 0  9999
2 65148  51.8999 124.9243 0002223 269.1622  90.9085 14.79933395 22131
KUIPER-00111            
1 65149U 25171T   25361.67429342  .00005129  00000+0  70104-3 0  9996
2 65149  51.8960 131.5167 0008150 234.6485 125.3716 14.79937194 22010
